satname,norad_id,inclination_deg,eccentricity,mean_motion_rev_per_day,perigee_km,apogee_km,l1,l2
STARLINK-1008,44714,53.0554,0.0001344,15.06395251,546.2953441751506,548.1568817799189,1 44714U 19074B   25348.31648008  .00001256  00000+0  10320-3 0  9995,2 44714  53.0554 209.8723 0001344  84.5475 275.5667 15.06395251335882
STARLINK-1012,44718,53.0548,0.0001553,15.06394105,546.1541158862492,548.3051347600749,1 44718U 19074F   25348.02898484  .00000236  00000+0  34779-4 0  9994,2 44718  53.0548 211.1605 0001553  87.4854 272.6313 15.06394105335837
STARLINK-1017,44723,53.0506,0.0006821,15.17877452,507.5567276304582,516.9566026684552,1 44723U 19074L   25348.30506873  .00024530  00000+0  12067-2 0  9996,2 44723  53.0506 203.3996 0006821  96.5143 263.6628 15.17877452335975
STARLINK-1019,44724,53.0521,0.0004085,15.56347989,395.46887140503077,401.0051689795282,1 44724U 19074M   25348.28447921  .00035350  00000+0  49729-3 0  9990,2 44724  53.0521 197.9354 0004085 139.2748 220.8569 15.56347989336043
STARLINK-1020,44725,53.0526,0.00012,15.0638722,546.4196805472911,548.081773601788,1 44725U 19074N   25348.09718880  .00017141  00000+0  11672-2 0  9998,2 44725  53.0526 230.8594 0001200  98.9288 261.1837 15.06387220335567
STARLINK-1031,44736,53.048,0.0007391,15.59387332,384.4271994211522,394.43101564130575,1 44736U 19074Z   25348.00004630  .00187156  00000+0  22778-2 0  9995,2 44736  53.0480 186.1469 0007391  92.6138  77.6987 15.59387332  5847
STARLINK-1036,44741,53.0548,0.0001461,15.06399611,546.2009565690068,548.2245437660067,1 44741U 19074AE  25348.06030765  .00000976  00000+0  84424-4 0  9997,2 44741  53.0548 231.0214 0001461 101.4730 258.6423 15.06399611335561
STARLINK-1039,44744,53.0496,0.0002888,15.15303258,518.0658495136777,522.0502469735429,1 44744U 19074AH  25348.16290156  .00007699  00000+0  41967-3 0  9996,2 44744  53.0496 246.1007 0002888  50.5631 309.5617 15.15303258335362
STARLINK-1042,44747,53.0443,0.0001828,15.45432429,428.8632142538554,431.3523085386214,1 44747U 19074AL  25348.14678422  .00020921  00000+0  43793-3 0  9995,2 44747  53.0443 143.7972 0001828 207.9518 152.1390 15.45432429336823
STARLINK-1043,44748,53.0543,0.0002624,15.44127727,432.1547905611151,435.7297697673457,1 44748U 19074AM  25348.00485910  .00045936  00000+0  99091-3 0  9994,2 44748  53.0543 245.3485 0002624 111.0147 249.1140 15.44127727335360
STARLINK-1046,44751,53.0538,0.0001383,15.063942,546.2715559959443,548.1871123239725,1 44751U 19074AQ  25348.11376228  .00011521  00000+0  79119-3 0  9993,2 44751  53.0538 250.7823 0001383  81.6062 278.5084 15.06394200335298
STARLINK-1047,44752,53.0703,0.0001404,15.30450942,473.5037987727401,475.428009668246,1 44752U 19074AR  25348.26839647  .00008887  00000+0  30943-3 0  9992,2 44752  53.0703 184.3972 0001404 356.5657   3.5333 15.30450942336251
STARLINK-1048,44753,53.053,0.0001412,15.06384654,546.280725759797,548.2364574748699,1 44753U 19074AS  25348.00685223 -.00005393  00000+0 -34355-3 0  9996,2 44753  53.0530 211.2606 0001412  87.4205 272.6946 15.06384654335833
STARLINK-1053,44758,53.0369,0.0002983,15.67453742,364.1792077246828,368.2028738338122,1 44758U 19074AX  25347.93563704  .00076869  00000+0  69461-3 0  9991,2 44758  53.0369 152.0465 0002983 181.1368 178.9641 15.67453742336674
STARLINK-1060,44765,53.0491,0.0007461,15.76530265,335.2675462307134,345.29276831279367,1 44765U 19074BE  25348.33336806  .00114085  00000+0  69670-3 0  9990,2 44765  53.0491 194.5968 0007461 140.3302 282.4074 15.76530265  5713
STARLINK-1063,44768,53.0536,0.000131,15.06394193,546.3221326215044,548.1365786066754,1 44768U 19074BH  25348.30174447  .00008634  00000+0  59788-3 0  9992,2 44768  53.0536 249.9409 0001310  89.7119 270.4020 15.06394193335333
STARLINK-1067,44771,53.0561,0.0001304,15.07318867,543.4940952501202,545.2994920635047,1 44771U 19074BL  25348.22365041  .00141247  00000+0  90850-2 0  9991,2 44771  53.0561 250.2843 0001304  69.7142 290.3988 15.07318867335316
STARLINK-1068,44772,53.0554,0.0001183,15.20570969,503.30306243304676,504.93140378460066,1 44772U 19074BM  25348.33336806  .01043142  00000+0  43646-1 0  9997,2 44772  53.0554 229.3354 0001183  94.0613  66.6088 15.20570969  5690
STARLINK-1112,44925,53.0479,0.0008263,15.65209329,367.0586349865489,378.21496376739833,1 44925U 20001M   25348.33336806  .00252699  00000+0  24306-2 0  9990,2 44925  53.0479 311.2058 0008263  43.6655  56.8972 15.65209329  5905
STARLINK-1114,44927,53.055,0.000158,15.06398449,546.1221057107487,548.3105173571939,1 44927U 20001P   25348.32018743  .00009299  00000+0  64238-3 0  9993,2 44927  53.0550   9.8584 0001580 104.0396 256.0769 15.06398449326989
STARLINK-1123,44930,53.0558,0.0001398,15.06391123,546.2705972664417,548.2069323302785,1 44930U 20001S   25348.33490089 -.00002057  00000+0 -11927-3 0  9999,2 44930  53.0558   9.7913 0001398  84.7443 275.3706 15.06391123326987
STARLINK-1144,44933,53.0416,0.0002648,15.74911696,343.1022168834061,346.6627279960103,1 44933U 20001V   25348.33336806  .00166973  00000+0  10872-2 0  9991,2 44933  53.0416 285.5834 0002648 111.6543 204.1399 15.74911696  5866
STARLINK-1094,44941,53.0561,0.0001504,15.06401107,546.1665932319547,548.2497370576311,1 44941U 20001AD  25348.28146415 -.00000171  00000+0  73858-5 0  9993,2 44941  53.0561 350.0336 0001504  80.8327 279.2833 15.06401107327250
STARLINK-1122,44949,53.0559,0.0001712,15.06397266,546.0343161595229,548.4055583748432,1 44949U 20001AM  25348.30358483  .00006198  00000+0  43462-3 0  9994,2 44949  53.0559 349.9299 0001712  89.9571 270.1614 15.06397266327259
STARLINK-1080,44961,53.0566,0.0001207,15.06373709,546.4562379417657,548.1280365354951,1 44961U 20001AZ  25348.23541234  .00000936  00000+0  81790-4 0  9999,2 44961  53.0566 330.2385 0001207  80.5452 279.5674 15.06373709327530
STARLINK-1090,44968,53.0558,0.0001318,15.06406201,546.2797943965161,548.1053112666423,1 44968U 20001BG  25348.23906905  .00002524  00000+0  18827-3 0  9991,2 44968  53.0558 330.2226 0001318  97.9769 262.1370 15.06406201327533
STARLINK-1132,45044,53.0558,0.0001541,15.06409787,546.1143707648043,548.2487539457234,1 45044U 20006A   25348.26486810  .00000814  00000+0  73508-4 0  9991,2 45044  53.0558 290.1083 0001541  82.9973 277.1191 15.06409787323864
STARLINK-1131,45047,53.0565,0.0001417,15.06403576,546.2192776973552,548.1819183726375,1 45047U 20006D   25348.17463477  .00002149  00000+0  16307-3 0  9994,2 45047  53.0565 311.0516 0001417  94.2183 265.8968 15.06403576323563
STARLINK-1134,45048,53.0364,0.000453,15.32777012,464.4302707793695,470.63244631221187,1 45048U 20006E   25348.11358258  .00021508  00000+0  67949-3 0  9997,2 45048  53.0364 281.7627 0004530   2.1063 357.9955 15.32777012323973
STARLINK-1156,45054,53.0549,0.0001513,15.06402628,546.1556994903076,548.2513075266688,1 45054U 20006L   25348.27778006  .00008977  00000+0  62076-3 0  9999,2 45054  53.0549 310.0473 0001513  90.9741 269.1422 15.06402628323585
STARLINK-1159,45057,53.0533,0.0006849,15.56758339,392.4058434932613,401.68648939465675,1 45057U 20006P   25348.29693295  .00041820  00000+0  57738-3 0  9993,2 45057  53.0533 295.8674 0006849  71.5914 288.5841 15.56758339323799
STARLINK-1166,45060,53.0555,0.0001468,15.06407686,546.1713638451938,548.2046392656512,1 45060U 20006S   25348.17087951  .00003825  00000+0  27549-3 0  9990,2 45060  53.0555 310.5271 0001468  88.9267 271.1890 15.06407686323579
STARLINK-1169,45061,53.0548,0.0001489,15.06425232,546.1030536861217,548.1653994573944,1 45061U 20006T   25348.31094502  .00012956  00000+0  88647-3 0  9998,2 45061  53.0548 309.9003 0001489  80.6121 279.5036 15.06425232323591
STARLINK-1171,45062,53.0541,0.0012713,15.40271261,436.6334254212652,453.9827168591455,1 45062U 20006U   25348.26786911  .00109508  00000+0  26444-2 0  9991,2 45062  53.0541 298.5500 0012713  63.2129 297.0174 15.40271261323752
STARLINK-1133,45064,53.055,0.0001386,15.06399142,546.2543339113518,548.1740412605504,1 45064U 20006W   25348.11006851  .00014925  00000+0  10188-2 0  9991,2 45064  53.0550 290.8015 0001386  93.5282 266.5866 15.06399142323840
STARLINK-1167,45071,53.0561,0.0001108,15.06377693,546.5125903286998,548.0472627196177,1 45071U 20006AD  25348.13586720 -.00006447  00000+0 -41458-3 0  9996,2 45071  53.0561 290.6859 0001108  83.7272 276.3843 15.06377693323847
STARLINK-1168,45072,53.0545,0.0001391,15.0643497,546.141080921986,548.0676830744569,1 45072U 20006AE  25348.13955732  .00015805  00000+0  10766-2 0  9993,2 45072  53.0545 290.6665 0001391  89.8213 270.2936 15.06434970323849
STARLINK-1172,45074,53.0548,0.0001377,15.06406524,546.2379451469587,548.1451806331788,1 45074U 20006AG  25348.21695661  .00001787  00000+0  13878-3 0  9998,2 45074  53.0548 290.3217 0001377  85.8933 274.2213 15.06406524323850
STARLINK-1153,45080,53.0557,0.0001454,15.0641256,546.1661235314641,548.180003697963,1 45080U 20006AN  25348.26118589  .00010123  00000+0  69726-3 0  9996,2 45080  53.0557 290.1217 0001454  96.6049 263.5106 15.06412560323869
STARLINK-1151,45081,53.0545,0.0002149,15.2117443,500.81834715913647,503.7755576718846,1 45081U 20006AP  25348.33336806  .02076422  00000+0  82568-1 0  9992,2 45081  53.0545 289.1643 0002149  70.7837  48.9075 15.21174430  5548
STARLINK-1185,45087,53.0554,0.0001309,15.06430701,546.2109495835448,548.0239812025848,1 45087U 20006AV  25348.22248414  .00013895  00000+0  94906-3 0  9997,2 45087  53.0554 270.2945 0001309  86.0882 274.0256 15.06430701324149
STARLINK-1183,45088,53.0549,0.0001464,15.0643726,546.0835094476197,548.1112180693281,1 45088U 20006AW  25348.17825404  .00011502  00000+0  78901-3 0  9992,2 45088  53.0549 270.4960 0001464  90.2447 269.8710 15.06437260324132
STARLINK-1142,45093,53.0214,0.0009338,15.91939273,290.62333388096613,303.0895516346609,1 45093U 20006BB  25348.33336806  .00657887  18452-3  19469-2 0  9998,2 45093  53.0214 181.9968 0009338 222.2255 356.9618 15.91939273  5870
